{
  "type": "FeatureCollection",
  "features": [
    {
      "type": "Feature",
      "properties": {
        "norad_id": 36258,
        "name": "FENGYUN 1C DEB",
        "group": "fengyun-1c-debris",
        "lat": 5.524257967543261,
        "lon": 14.964014284263266,
        "alt_km": 709.0364813215347,
        "timestamp": "2025-12-12T09:49:09.020061+00:00",
        "meta_object_name": "FENGYUN 1C DEB",
        "meta_object_id": "1999-025DWK",
        "meta_epoch": "2025-12-11T07:44:28.037472",
        "meta_mean_motion": 14.74838195,
        "meta_eccentricity": 0.01735534,
        "meta_inclination": 99.0879,
        "meta_ra_of_asc_node": 14.632,
        "meta_arg_of_pericenter": 130.0667,
        "meta_mean_anomaly": 231.5906,
        "meta_ephemeris_type": 0,
        "meta_classification_type": "U",
        "meta_norad_cat_id": 36258,
        "meta_element_set_no": 999,
        "meta_rev_at_epoch": 90801,
        "meta_bstar": 0.00051236184,
        "meta_mean_motion_dot": 4.311e-05,
        "meta_mean_motion_ddot": 0,
        "tle_line1": "1 36258U 99025DWK 25345.32254673  .00004311  00000+0  51236-3 0  9998",
        "tle_line2": "2 36258  99.0879  14.6320 0173553 130.0667 231.5906 14.74838195908015"
      },
      "geometry": {
        "type": "Point",
        "coordinates": [
          14.964014284263266,
          5.524257967543261
        ]
      }
    },
    {
      "type": "Feature",
      "properties": {
        "norad_id": 36260,
        "name": "FENGYUN 1C DEB",
        "group": "fengyun-1c-debris",
        "lat": -49.08797369425639,
        "lon": 158.46728767349228,
        "alt_km": 837.7772352693664,
        "timestamp": "2025-12-12T09:49:09.020071+00:00",
        "meta_object_name": "FENGYUN 1C DEB",
        "meta_object_id": "1999-025DWM",
        "meta_epoch": "2025-12-11T10:40:46.930368",
        "meta_mean_motion": 14.15371689,
        "meta_eccentricity": 0.0014965,
        "meta_inclination": 98.6615,
        "meta_ra_of_asc_node": 347.6617,
        "meta_arg_of_pericenter": 253.4833,
        "meta_mean_anomaly": 106.4697,
        "meta_ephemeris_type": 0,
        "meta_classification_type": "U",
        "meta_norad_cat_id": 36260,
        "meta_element_set_no": 999,
        "meta_rev_at_epoch": 87790,
        "meta_bstar": 0.00027549941,
        "meta_mean_motion_dot": 4.95e-06,
        "meta_mean_motion_ddot": 0,
        "tle_line1": "1 36260U 99025DWM 25345.44498762  .00000495  00000+0  27550-3 0  9994",
        "tle_line2": "2 36260  98.6615 347.6617 0014965 253.4833 106.4697 14.15371689877900"
      },
      "geometry": {
        "type": "Point",
        "coordinates": [
          158.46728767349228,
          -49.08797369425639
        ]
      }
    },
    {
      "type": "Feature",
      "properties": {
        "norad_id": 36261,
        "name": "FENGYUN 1C DEB",
        "group": "fengyun-1c-debris",
        "lat": 69.44426153610206,
        "lon": -153.8656014861986,
        "alt_km": 817.0023700576448,
        "timestamp": "2025-12-12T09:49:09.020082+00:00",
        "meta_object_name": "FENGYUN 1C DEB",
        "meta_object_id": "1999-025DWN",
        "meta_epoch": "2025-12-10T12:51:44.703648",
        "meta_mean_motion": 13.45476909,
        "meta_eccentricity": 0.0355433,
        "meta_inclination": 101.3651,
        "meta_ra_of_asc_node": 236.4477,
        "meta_arg_of_pericenter": 80.3414,
        "meta_mean_anomaly": 283.7668,
        "meta_ephemeris_type": 0,
        "meta_classification_type": "U",
        "meta_norad_cat_id": 36261,
        "meta_element_set_no": 999,
        "meta_rev_at_epoch": 84403,
        "meta_bstar": 0.00073435,
        "meta_mean_motion_dot": 5.84e-06,
        "meta_mean_motion_ddot": 0,
        "tle_line1": "1 36261U 99025DWN 25344.53593407  .00000584  00000+0  73435-3 0  9998",
        "tle_line2": "2 36261 101.3651 236.4477 0355433  80.3414 283.7668 13.45476909844030"
      },
      "geometry": {
        "type": "Point",
        "coordinates": [
          -153.8656014861986,
          69.44426153610206
        ]
      }
    },
    {
      "type": "Feature",
      "properties": {
        "norad_id": 36262,
        "name": "FENGYUN 1C DEB",
        "group": "fengyun-1c-debris",
        "lat": 9.799660273650815,
        "lon": -134.65660781833574,
        "alt_km": 802.967783907784,
        "timestamp": "2025-12-12T09:49:09.020092+00:00",
        "meta_object_name": "FENGYUN 1C DEB",
        "meta_object_id": "1999-025DWP",
        "meta_epoch": "2025-12-08T09:54:26.531712",
        "meta_mean_motion": 14.27796215,
        "meta_eccentricity": 0.00599528,
        "meta_inclination": 98.9618,
        "meta_ra_of_asc_node": 222.8075,
        "meta_arg_of_pericenter": 288.1373,
        "meta_mean_anomaly": 71.3285,
        "meta_ephemeris_type": 0,
        "meta_classification_type": "U",
        "meta_norad_cat_id": 36262,
        "meta_element_set_no": 999,
        "meta_rev_at_epoch": 89435,
        "meta_bstar": 0.0005578287,
        "meta_mean_motion_dot": 1.358e-05,
        "meta_mean_motion_ddot": 0,
        "tle_line1": "1 36262U 99025DWP 25342.41280708  .00001358  00000+0  55783-3 0  9997",
        "tle_line2": "2 36262  98.9618 222.8075 0059952 288.1373  71.3285 14.27796215894359"
      },
      "geometry": {
        "type": "Point",
        "coordinates": [
          -134.65660781833574,
          9.799660273650815
        ]
      }
    },
    {
      "type": "Feature",
      "properties": {
        "norad_id": 36263,
        "name": "FENGYUN 1C DEB",
        "group": "fengyun-1c-debris",
        "lat": 21.08075302479976,
        "lon": 50.940524570278754,
        "alt_km": 747.5202429290903,
        "timestamp": "2025-12-12T09:49:09.020103+00:00",
        "meta_object_name": "FENGYUN 1C DEB",
        "meta_object_id": "1999-025DWQ",
        "meta_epoch": "2025-12-11T09:49:43.311648",
        "meta_mean_motion": 14.456173,
        "meta_eccentricity": 0.00362114,
        "meta_inclination": 98.9987,
        "meta_ra_of_asc_node": 226.3791,
        "meta_arg_of_pericenter": 269.226,
        "meta_mean_anomaly": 90.478,
        "meta_ephemeris_type": 0,
        "meta_classification_type": "U",
        "meta_norad_cat_id": 36263,
        "meta_element_set_no": 999,
        "meta_rev_at_epoch": 87966,
        "meta_bstar": 0.0037241412,
        "meta_mean_motion_dot": 0.00013243,
        "meta_mean_motion_ddot": 0,
        "tle_line1": "1 36263U 99025DWQ 25345.40952907  .00013243  00000+0  37241-2 0  9991",
        "tle_line2": "2 36263  98.9987 226.3791 0036211 269.2260  90.4780 14.45617300879667"
      },
      "geometry": {
        "type": "Point",
        "coordinates": [
          50.940524570278754,
          21.08075302479976
        ]
      }
    },
    {
      "type": "Feature",
      "properties": {
        "norad_id": 36267,
        "name": "FENGYUN 1C DEB",
        "group": "fengyun-1c-debris",
        "lat": 59.48316682296093,
        "lon": -80.98755402286342,
        "alt_km": 936.2970559159621,
        "timestamp": "2025-12-12T09:49:09.020113+00:00",
        "meta_object_name": "FENGYUN 1C DEB",
        "meta_object_id": "1999-025DWU",
        "meta_epoch": "2025-12-11T08:41:27.655296",
        "meta_mean_motion": 14.09091758,
        "meta_eccentricity": 0.01263004,
        "meta_inclination": 98.5598,
        "meta_ra_of_asc_node": 292.8218,
        "meta_arg_of_pericenter": 214.5137,
        "meta_mean_anomaly": 298.6282,
        "meta_ephemeris_type": 0,
        "meta_classification_type": "U",
        "meta_norad_cat_id": 36267,
        "meta_element_set_no": 999,
        "meta_rev_at_epoch": 86510,
        "meta_bstar": 0.0016467639,
        "meta_mean_motion_dot": 3.034e-05,
        "meta_mean_motion_ddot": 0,
        "tle_line1": "1 36267U 99025DWU 25345.36212564  .00003034  00000+0  16468-2 0  9993",
        "tle_line2": "2 36267  98.5598 292.8218 0126300 214.5137 298.6282 14.09091758865108"
      },
      "geometry": {
        "type": "Point",
        "coordinates": [
          -80.98755402286342,
          59.48316682296093
        ]
      }
    },
    {
      "type": "Feature",
      "properties": {
        "norad_id": 36269,
        "name": "FENGYUN 1C DEB",
        "group": "fengyun-1c-debris",
        "lat": 29.15338958557557,
        "lon": 113.48871030606452,
        "alt_km": 906.5886418068676,
        "timestamp": "2025-12-12T09:49:09.020124+00:00",
        "meta_object_name": "FENGYUN 1C DEB",
        "meta_object_id": "1999-025DWW",
        "meta_epoch": "2025-12-09T13:47:06.134784",
        "meta_mean_motion": 14.27013295,
        "meta_eccentricity": 0.0233384,
        "meta_inclination": 99.1074,
        "meta_ra_of_asc_node": 285.4023,
        "meta_arg_of_pericenter": 288.9499,
        "meta_mean_anomaly": 68.6519,
        "meta_ephemeris_type": 0,
        "meta_classification_type": "U",
        "meta_norad_cat_id": 36269,
        "meta_element_set_no": 999,
        "meta_rev_at_epoch": 87671,
        "meta_bstar": 0.0013246,
        "meta_mean_motion_dot": 4.249e-05,
        "meta_mean_motion_ddot": 0,
        "tle_line1": "1 36269U 99025DWW 25343.57437656  .00004249  00000+0  13246-2 0  9997",
        "tle_line2": "2 36269  99.1074 285.4023 0233384 288.9499  68.6519 14.27013295876712"
      },
      "geometry": {
        "type": "Point",
        "coordinates": [
          113.48871030606452,
          29.15338958557557
        ]
      }
    }
  ]
}